[{"OBJECT_NAME":"HEAD-3D","OBJECT_ID":"2023-121D","EPOCH":"2026-03-09T23:30:37.088352","MEAN_MOTION":14.62739417,"ECCENTRICITY":0.00055409,"INCLINATION":45.0054,"RA_OF_ASC_NODE":64.1503,"ARG_OF_PERICENTER":112.6347,"MEAN_ANOMALY":247.5097,"EPHEMERIS_TYPE":0,"CLASSIFICATION_TYPE":"U","NORAD_CAT_ID":57629,"ELEMENT_SET_NO":999,"REV_AT_EPOCH":13727,"BSTAR":0.00023960943,"MEAN_MOTION_DOT":1.072e-5,"MEAN_MOTION_DDOT":0},{"OBJECT_NAME":"FENGYUN 1C DEB","OBJECT_ID":"1999-025BSV","EPOCH":"2026-03-09T10:24:08.158464","MEAN_MOTION":14.6573547,"ECCENTRICITY":0.00281944,"INCLINATION":99.0439,"RA_OF_ASC_NODE":247.1336,"ARG_OF_PERICENTER":275.5109,"MEAN_ANOMALY":147.7653,"EPHEMERIS_TYPE":0,"CLASSIFICATION_TYPE":"U","NORAD_CAT_ID":31389,"ELEMENT_SET_NO":999,"REV_AT_EPOCH":97765,"BSTAR":0.0046362209,"MEAN_MOTION_DOT":0.00025435,"MEAN_MOTION_DDOT":0}]
